{
  "type": "FeatureCollection",
  "features": [
    {
      "type": "Feature",
      "properties": {
        "prototype_ref": "P001",
        "ulpin": "58427193061584",
        "state": "Uttar Pradesh",
        "district": "Lucknow",
        "taluka": null,
        "tehsil": "Mohanlalganj",
        "village": "Bani",
        "quality_class": "clean",
        "issue": null
      },
      "geometry": {
        "type": "Polygon",
        "coordinates": [
          [
            [
              80.9449214,
              26.847638
            ],
            [
              80.9447694,
              26.8483629
            ],
            [
              80.9439713,
              26.8484384
            ],
            [
              80.9435794,
              26.847987
            ],
            [
              80.9434009,
              26.8473566
            ],
            [
              80.9440755,
              26.846928
            ],
            [
              80.9447057,
              26.8471381
            ],
            [
              80.9449214,
              26.847638
            ]
          ]
        ]
      }
    },
    {
      "type": "Feature",
      "properties": {
        "prototype_ref": "P002",
        "ulpin": "74130652819473",
        "state": "Uttar Pradesh",
        "district": "Varanasi",
        "taluka": null,
        "tehsil": "Pindra",
        "village": "Lakhanpur",
        "quality_class": "clean",
        "issue": null
      },
      "geometry": {
        "type": "Polygon",
        "coordinates": [
          [
            [
              82.9707146,
              25.3196136
            ],
            [
              82.9705616,
              25.3203252
            ],
            [
              82.9698906,
              25.3203864
            ],
            [
              82.969299,
              25.3201878
            ],
            [
              82.9688924,
              25.3195698
            ],
            [
              82.9693166,
              25.3190559
            ],
            [
              82.969817,
              25.318771
            ],
            [
              82.9705741,
              25.3189208
            ],
            [
              82.9707146,
              25.3196136
            ]
          ]
        ]
      }
    },
    {
      "type": "Feature",
      "properties": {
        "prototype_ref": "P003",
        "ulpin": "21684570319265",
        "state": "Uttar Pradesh",
        "district": "Prayagraj",
        "taluka": null,
        "tehsil": "Soraon",
        "village": "अरूआंव",
        "quality_class": "clean",
        "issue": null
      },
      "geometry": {
        "type": "Polygon",
        "coordinates": [
          [
            [
              81.8409393,
              25.4388375
            ],
            [
              81.8406996,
              25.4392947
            ],
            [
              81.8401821,
              25.4393174
            ],
            [
              81.8396607,
              25.4390595
            ],
            [
              81.839716,
              25.4385117
            ],
            [
              81.8401354,
              25.4383093
            ],
            [
              81.8406866,
              25.4382618
            ],
            [
              81.8409393,
              25.4388375
            ]
          ]
        ]
      }
    },
    {
      "type": "Feature",
      "properties": {
        "prototype_ref": "P004",
        "ulpin": "93051726480139",
        "state": "Uttar Pradesh",
        "district": "Agra",
        "taluka": null,
        "tehsil": "Kiraoli",
        "village": "Achhnera",
        "quality_class": "clean",
        "issue": null
      },
      "geometry": {
        "type": "Polygon",
        "coordinates": [
          [
            [
              78.0087291,
              27.1807358
            ],
            [
              78.008511,
              27.1810464
            ],
            [
              78.0081042,
              27.1812136
            ],
            [
              78.0075975,
              27.1810889
            ],
            [
              78.0075674,
              27.1807007
            ],
            [
              78.0076721,
              27.1803887
            ],
            [
              78.0080862,
              27.1800954
            ],
            [
              78.0085037,
              27.1803843
            ],
            [
              78.0087291,
              27.1807358
            ]
          ]
        ]
      }
    },
    {
      "type": "Feature",
      "properties": {
        "prototype_ref": "P005",
        "ulpin": "46792130584716",
        "state": "Uttar Pradesh",
        "district": "Meerut",
        "taluka": null,
        "tehsil": "Sardhana",
        "village": "Daurala",
        "quality_class": "clean",
        "issue": null
      },
      "geometry": {
        "type": "Polygon",
        "coordinates": [
          [
            [
              77.7055091,
              28.9894857
            ],
            [
              77.7050211,
              28.9901504
            ],
            [
              77.7040522,
              28.9905047
            ],
            [
              77.7033011,
              28.9899017
            ],
            [
              77.7035389,
              28.9892121
            ],
            [
              77.7040677,
              28.9885491
            ],
            [
              77.7051813,
              28.9887215
            ],
            [
              77.7055091,
              28.9894857
            ]
          ]
        ]
      }
    },
    {
      "type": "Feature",
      "properties": {
        "prototype_ref": "P006",
        "ulpin": "81527460391852",
        "state": "Uttar Pradesh",
        "district": "Gorakhpur",
        "taluka": null,
        "tehsil": "Sahjanwa",
        "village": "अकुआपार",
        "quality_class": "clean",
        "issue": null
      },
      "geometry": {
        "type": "Polygon",
        "coordinates": [
          [
            [
              83.3699665,
              26.7665498
            ],
            [
              83.3697382,
              26.767072
            ],
            [
              83.3691471,
              26.767425
            ],
            [
              83.3686868,
              26.7670862
            ],
            [
              83.3685277,
              26.7666354
            ],
            [
              83.3686005,
              26.7660085
            ],
            [
              83.3692538,
              26.7658762
            ],
            [
              83.3697078,
              26.7661045
            ],
            [
              83.3699665,
              26.7665498
            ]
          ]
        ]
      }
    },
    {
      "type": "Feature",
      "properties": {
        "prototype_ref": "P007",
        "ulpin": "39261584027361",
        "state": "Uttar Pradesh",
        "district": "Kanpur Nagar",
        "taluka": null,
        "tehsil": "Bilhaur",
        "village": "Bilhaur",
        "quality_class": "clean",
        "issue": null
      },
      "geometry": {
        "type": "Polygon",
        "coordinates": [
          [
            [
              80.326673,
              26.4568588
            ],
            [
              80.3264415,
              26.4575637
            ],
            [
              80.3256674,
              26.4577686
            ],
            [
              80.3252462,
              26.4572216
            ],
            [
              80.325139,
              26.4565483
            ],
            [
              80.32576,
              26.4560147
            ],
            [
              80.3264135,
              26.4562962
            ],
            [
              80.326673,
              26.4568588
            ]
          ]
        ]
      }
    },
    {
      "type": "Feature",
      "properties": {
        "prototype_ref": "P008",
        "ulpin": "67430291854637",
        "state": "Uttar Pradesh",
        "district": "Ayodhya",
        "taluka": null,
        "tehsil": "Sadar",
        "village": "Deokali",
        "quality_class": "clean",
        "issue": null
      },
      "geometry": {
        "type": "Polygon",
        "coordinates": [
          [
            [
              82.200234,
              26.800215
            ],
            [
              82.2001882,
              26.8005913
            ],
            [
              82.1998206,
              26.8006828
            ],
            [
              82.1994864,
              26.8004919
            ],
            [
              82.1992424,
              26.8001676
            ],
            [
              82.1994321,
              26.7998646
            ],
            [
              82.1997578,
              26.7997667
            ],
            [
              82.2002051,
              26.7998272
            ],
            [
              82.200234,
              26.800215
            ]
          ]
        ]
      }
    },
    {
      "type": "Feature",
      "properties": {
        "prototype_ref": "P009",
        "ulpin": "52847160392586",
        "state": "Uttar Pradesh",
        "district": "Gautam Buddha Nagar",
        "taluka": null,
        "tehsil": "Dadri",
        "village": "Barola",
        "quality_class": "clean",
        "issue": null
      },
      "geometry": {
        "type": "Polygon",
        "coordinates": [
          [
            [
              77.5022445,
              28.4834104
            ],
            [
              77.5021917,
              28.4836026
            ],
            [
              77.5019552,
              28.4836118
            ],
            [
              77.501763,
              28.4834842
            ],
            [
              77.5017464,
              28.4832752
            ],
            [
              77.5019304,
              28.4831942
            ],
            [
              77.5021567,
              28.4832018
            ],
            [
              77.5022445,
              28.4834104
            ]
          ]
        ]
      }
    },
    {
      "type": "Feature",
      "properties": {
        "prototype_ref": "P010",
        "ulpin": "10382654971064",
        "state": "Uttar Pradesh",
        "district": "Ghaziabad",
        "taluka": null,
        "tehsil": "Loni",
        "village": "Mandola",
        "quality_class": "clean",
        "issue": null
      },
      "geometry": {
        "type": "Polygon",
        "coordinates": [
          [
            [
              77.4500099,
              28.679207
            ],
            [
              77.4499599,
              28.6793331
            ],
            [
              77.4497901,
              28.6793705
            ],
            [
              77.4496224,
              28.6793315
            ],
            [
              77.449584,
              28.6792068
            ],
            [
              77.4496533,
              28.6790982
            ],
            [
              77.4497983,
              28.6789953
            ],
            [
              77.4499534,
              28.6790754
            ],
            [
              77.4500099,
              28.679207
            ]
          ]
        ]
      }
    },
    {
      "type": "Feature",
      "properties": {
        "prototype_ref": "P011",
        "ulpin": "84650723190428",
        "state": "Uttar Pradesh",
        "district": "Lucknow",
        "taluka": null,
        "tehsil": "Bakshi Ka Talab",
        "village": "Itaunja",
        "quality_class": "messy",
        "issue": "OWNER_MISMATCH"
      },
      "geometry": {
        "type": "Polygon",
        "coordinates": [
          [
            [
              80.9406945,
              26.8576797
            ],
            [
              80.9404717,
              26.8580138
            ],
            [
              80.9400414,
              26.8581022
            ],
            [
              80.9396954,
              26.8578988
            ],
            [
              80.9397881,
              26.8575674
            ],
            [
              80.940072,
              26.8573153
            ],
            [
              80.9405503,
              26.8573384
            ],
            [
              80.9406945,
              26.8576797
            ]
          ]
        ]
      }
    },
    {
      "type": "Feature",
      "properties": {
        "prototype_ref": "P012",
        "ulpin": "27541896372051",
        "state": "Uttar Pradesh",
        "district": "Mathura",
        "taluka": null,
        "tehsil": "Chhata",
        "village": "Kosi Kalan",
        "quality_class": "messy",
        "issue": "AREA_MISMATCH"
      },
      "geometry": {
        "type": "Polygon",
        "coordinates": [
          [
            [
              77.6741089,
              27.5043792
            ],
            [
              77.6739402,
              27.5046326
            ],
            [
              77.6736762,
              27.5047816
            ],
            [
              77.6734239,
              27.504673
            ],
            [
              77.6733789,
              27.5044139
            ],
            [
              77.6734249,
              27.5041269
            ],
            [
              77.6737102,
              27.5040157
            ],
            [
              77.6739276,
              27.5041702
            ],
            [
              77.6741089,
              27.5043792
            ]
          ]
        ]
      }
    },
    {
      "type": "Feature",
      "properties": {
        "prototype_ref": "P013",
        "ulpin": "71960432851792",
        "state": "Uttar Pradesh",
        "district": "Saharanpur",
        "taluka": null,
        "tehsil": "Behat",
        "village": "Chilkana",
        "quality_class": "messy",
        "issue": "PENDING_NAMANTARAN"
      },
      "geometry": {
        "type": "Polygon",
        "coordinates": [
          [
            [
              77.5446753,
              29.9769948
            ],
            [
              77.5443848,
              29.9774843
            ],
            [
              77.5438214,
              29.9777125
            ],
            [
              77.5434026,
              29.977285
            ],
            [
              77.5434396,
              29.9767428
            ],
            [
              77.5438586,
              29.976297
            ],
            [
              77.5444202,
              29.9764848
            ],
            [
              77.5446753,
              29.9769948
            ]
          ]
        ]
      }
    },
    {
      "type": "Feature",
      "properties": {
        "prototype_ref": "P014",
        "ulpin": "45039182764025",
        "state": "Uttar Pradesh",
        "district": "Jhansi",
        "taluka": null,
        "tehsil": "Moth",
        "village": "Mau",
        "quality_class": "messy",
        "issue": "ENCUMBRANCE_LITIGATION"
      },
      "geometry": {
        "type": "Polygon",
        "coordinates": [
          [
            [
              78.5651444,
              25.4624283
            ],
            [
              78.5650525,
              25.4629127
            ],
            [
              78.5645595,
              25.4631694
            ],
            [
              78.5640433,
              25.4628077
            ],
            [
              78.5637631,
              25.462345
            ],
            [
              78.5639056,
              25.4618691
            ],
            [
              78.5644539,
              25.4617613
            ],
            [
              78.5650795,
              25.4618998
            ],
            [
              78.5651444,
              25.4624283
            ]
          ]
        ]
      }
    },
    {
      "type": "Feature",
      "properties": {
        "prototype_ref": "P015",
        "ulpin": "96274310582614",
        "state": "Uttar Pradesh",
        "district": "Moradabad",
        "taluka": null,
        "tehsil": "Thakurdwara",
        "village": "Surjan Nagar",
        "quality_class": "messy",
        "issue": "GIS_AREA_MISMATCH"
      },
      "geometry": {
        "type": "Polygon",
        "coordinates": [
          [
            [
              78.7681585,
              28.8536148
            ],
            [
              78.7680611,
              28.8543238
            ],
            [
              78.7671168,
              28.8544618
            ],
            [
              78.7665033,
              28.8538604
            ],
            [
              78.7663608,
              28.8531497
            ],
            [
              78.7670208,
              28.8527486
            ],
            [
              78.7678827,
              28.8529283
            ],
            [
              78.7681585,
              28.8536148
            ]
          ]
        ]
      }
    }
  ]
}